{"type": "FeatureCollection", "features": [{"type": "Feature", "geometry": {"type": "MultiLineString", "coordinates": [[[-53.361413, -33.735387], [-48.0, -36.0], [-43.0, -31.0], [-48.822889, -28.594486], [-43.0, -31.0], [-38.0, -26.0], [-42.042383, -22.94707], [-38.0, -26.0], [-43.0, -31.0], [-48.822889, -28.594486], [-42.042383, -22.94707], [-38.0, -26.0], [-33.0, -21.0], [-39.2, -17.766667], [-33.0, -21.0], [-33.0, -15.0], [-38.498926, -12.956641], [-33.0, -15.0], [-29.0, -10.0], [-29.0, -3.0], [-35.187366, -5.744688], [-29.0, -3.0], [-38.0, 2.0], [-44.228613, -2.471289], [-38.0, 2.0], [-48.0, 7.0], [-51.55, 4.433333], [-48.0, 7.0], [-38.0, 2.0], [-44.228613, -2.471289], [-38.0, 2.0], [-29.0, -3.0], [-35.187366, -5.744688], [-29.0, -3.0], [-29.0, -10.0], [-33.0, -15.0], [-20.0, -15.0], [-20.0, 7.0], [-48.0, 7.0], [-38.0, 2.0], [-29.0, -3.0], [-29.0, -10.0], [-33.0, -15.0], [-20.0, -15.0], [-20.0, -36.0], [-48.0, -36.0], [-43.0, -31.0], [-38.0, -26.0], [-33.0, -21.0], [-38.0, -26.0], [-43.0, -31.0], [-48.0, -36.0], [-53.361413, -33.735387]]]}, "properties": {}}]}