{
"type": "FeatureCollection",
"name": "split_polygons",
"features": [
{ "type": "Feature", "properties": { }, "geometry": { "type": "GeometryCollection", "geometries": [ { "type": "LineString", "coordinates": [ [ -53.366666666666703, -33.733333333333299 ], [ -48.0, -36.0 ] ] }, { "type": "Polygon", "coordinates": [ [ [ -42.244444444444468, -36.0 ], [ -48.0, -36.0 ], [ -43.0, -31.0 ], [ -48.816666666666698, -28.6 ], [ -42.244444444444468, -23.216883998913392 ], [ -42.244444444444468, -30.244444444444468 ], [ -42.244444444444468, -36.0 ] ] ] } ] } },
{ "type": "Feature", "properties": { }, "geometry": { "type": "GeometryCollection", "geometries": [ { "type": "LineString", "coordinates": [ [ -42.244444444444468, -1.020517342739581 ], [ -44.3, -2.48333333333333 ] ] }, { "type": "LineString", "coordinates": [ [ -48.0, 7.0 ], [ -51.55, 4.43333333333333 ] ] }, { "type": "Polygon", "coordinates": [ [ [ -42.244444444444468, 4.122222222222234 ], [ -48.0, 7.0 ], [ -42.244444444444468, 7.0 ], [ -42.244444444444468, 4.122222222222234 ] ] ] } ] } },
{ "type": "Feature", "properties": { }, "geometry": { "type": "Polygon", "coordinates": [ [ [ -42.0, -23.016666666666701 ], [ -38.0, -26.0 ], [ -33.666666666666664, -21.666666666666664 ], [ -31.122222222222234, -21.666666666666664 ], [ -31.122222222222234, -36.0 ], [ -42.244444444444468, -36.0 ], [ -42.244444444444468, -30.244444444444468 ], [ -42.244444444444468, -23.216883998913392 ], [ -42.0, -23.016666666666701 ] ] ] } },
{ "type": "Feature", "properties": { }, "geometry": { "type": "GeometryCollection", "geometries": [ { "type": "LineString", "coordinates": [ [ -33.0, -21.0 ], [ -39.2, -17.766666666666701 ] ] }, { "type": "LineString", "coordinates": [ [ -33.0, -15.0 ], [ -38.533333333333303, -13.016666666666699 ] ] }, { "type": "Polygon", "coordinates": [ [ [ -33.666666666666664, -21.666666666666664 ], [ -33.0, -21.0 ], [ -33.0, -15.0 ], [ -31.122222222222234, -12.652777777777793 ], [ -31.122222222222234, -15.0 ], [ -31.122222222222234, -21.666666666666664 ], [ -33.666666666666664, -21.666666666666664 ] ] ] } ] } },
{ "type": "Feature", "properties": { }, "geometry": { "type": "GeometryCollection", "geometries": [ { "type": "LineString", "coordinates": [ [ -31.122222222222234, -3.941308243727603 ], [ -35.2, -5.75 ] ] }, { "type": "LineString", "coordinates": [ [ -38.0, 2.0 ], [ -42.244444444444468, -1.020517342739581 ] ] }, { "type": "Polygon", "coordinates": [ [ [ -31.122222222222234, -1.820987654320981 ], [ -38.0, 2.0 ], [ -42.244444444444468, 4.122222222222234 ], [ -42.244444444444468, 7.0 ], [ -31.122222222222234, 7.0 ], [ -31.122222222222234, -1.820987654320981 ] ] ] } ] } },
{ "type": "Feature", "properties": { }, "geometry": { "type": "Polygon", "coordinates": [ [ [ -20.0, -21.666666666666664 ], [ -20.0, -36.0 ], [ -31.122222222222234, -36.0 ], [ -31.122222222222234, -21.666666666666664 ], [ -20.0, -21.666666666666664 ] ] ] } },
{ "type": "Feature", "properties": { }, "geometry": { "type": "Polygon", "coordinates": [ [ [ -31.122222222222234, -12.652777777777793 ], [ -29.0, -10.0 ], [ -29.0, -7.333333333333333 ], [ -20.0, -7.333333333333333 ], [ -20.0, -15.0 ], [ -20.0, -21.666666666666664 ], [ -31.122222222222234, -21.666666666666664 ], [ -31.122222222222234, -15.0 ], [ -31.122222222222234, -12.652777777777793 ] ] ] } },
{ "type": "Feature", "properties": { }, "geometry": { "type": "GeometryCollection", "geometries": [ { "type": "LineString", "coordinates": [ [ -29.0, -3.0 ], [ -31.122222222222234, -3.941308243727603 ] ] }, { "type": "Polygon", "coordinates": [ [ [ -29.0, -7.333333333333332 ], [ -29.0, -3.0 ], [ -31.122222222222234, -1.820987654320981 ], [ -31.122222222222234, 7.0 ], [ -20.0, 7.0 ], [ -20.0, -7.333333333333332 ], [ -29.0, -7.333333333333332 ] ] ] } ] } }
]
}
